{
    "type": "FeatureCollection",
    "features": [
        {
            "type": "Feature",
            "properties": {
                "route_id": 1,
                "route_name": "Alamein"
            },
            "geometry": {
                "type": "Polygon",
                "coordinates": [
                    [
                        [
                            145.0688485,
                            -37.8260385
                        ],
                        [
                            145.0665968,
                            -37.8265544
                        ],
                        [
                            145.066078,
                            -37.8360302
                        ],
                        [
                            145.0766911,
                            -37.8575587
                        ],
                        [
                            145.0759294,
                            -37.8702131
                        ],
                        [
                            145.0891212,
                            -37.8712381
                        ],
                        [
                            145.0944106,
                            -37.8554929
                        ],
                        [
                            145.0688485,
                            -37.8260385
                        ]
                    ]
                ]
            }
        },
        {
            "type": "Feature",
            "properties": {
                "route_id": 2,
                "route_name": "Belgrave"
            },
            "geometry": {
                "type": "Polygon",
                "coordinates": [
                    [
                        [
                            145.2387064,
                            -37.8149841
                        ],
                        [
                            145.2327284,
                            -37.8155089
                        ],
                        [
                            145.23962,
                            -37.8356688
                        ],
                        [
                            145.3008693,
                            -37.9033748
                        ],
                        [
                            145.3616831,
                            -37.919322
                        ],
                        [
                            145.3707847,
                            -37.901573
                        ],
                        [
                            145.295819,
                            -37.8507617
                        ],
                        [
                            145.2431924,
                            -37.8155386
                        ],
                        [
                            145.2387064,
                            -37.8149841
                        ]
                    ]
                ]
            }
        },
        {
            "type": "Feature",
            "properties": {
                "route_id": 3,
                "route_name": "Craigieburn"
            },
            "geometry": {
                "type": "Polygon",
                "coordinates": [
                    [
                        [
                            144.9346159,
                            -37.8007675
                        ],
                        [
                            144.9296857,
                            -37.7992175
                        ],
                        [
                            144.9285736,
                            -37.7860345
                        ],
                        [
                            144.925972,
                            -37.7811845
                        ],
                        [
                            144.9180224,
                            -37.7743509
                        ],
                        [
                            144.9117567,
                            -37.7542736
                        ],
                        [
                            144.9123017,
                            -37.6534479
                        ],
                        [
                            144.9357823,
                            -37.5968834
                        ],
                        [
                            144.950126,
                            -37.5981219
                        ],
                        [
                            144.9263679,
                            -37.6995004
                        ],
                        [
                            144.9346159,
                            -37.8007675
                        ]
                    ]
                ]
            }
        },
        {
            "type": "Feature",
            "properties": {
                "route_id": 4,
                "route_name": "Cranbourne"
            },
            "geometry": {
                "type": "Polygon",
                "coordinates": [
                    [
                        [
                            145.2237602,
                            -38.0009491
                        ],
                        [
                            145.2220799,
                            -38.0010157
                        ],
                        [
                            145.2357,
                            -38.0455107
                        ],
                        [
                            145.2785525,
                            -38.1045044
                        ],
                        [
                            145.288669,
                            -38.098885
                        ],
                        [
                            145.2237602,
                            -38.0009491
                        ]
                    ]
                ]
            }
        },
        {
            "type": "Feature",
            "properties": {
                "route_id": 5,
                "route_name": "Mernda"
            },
            "geometry": {
                "type": "Polygon",
                "coordinates": [
                    [
                        [
                            144.9958404,
                            -37.7858615
                        ],
                        [
                            144.995433,
                            -37.7868734
                        ],
                        [
                            144.9886968,
                            -37.7813965
                        ],
                        [
                            145.0174729,
                            -37.5938112
                        ],
                        [
                            145.1084269,
                            -37.5905424
                        ],
                        [
                            145.1022865,
                            -37.6512219
                        ],
                        [
                            145.0402408,
                            -37.6628532
                        ],
                        [
                            144.9968194,
                            -37.7809828
                        ],
                        [
                            144.9958404,
                            -37.7858615
                        ]
                    ]
                ]
            }
        },
        {
            "type": "Feature",
            "properties": {
                "route_id": 6,
                "route_name": "Frankston"
            },
            "geometry": {
                "type": "Polygon",
                "coordinates": [
                    [
                        [
                            145.0478508,
                            -37.8817908
                        ],
                        [
                            145.0447109,
                            -37.8796094
                        ],
                        [
                            145.034784,
                            -37.8898464
                        ],
                        [
                            145.0323867,
                            -37.9589025
                        ],
                        [
                            145.1021571,
                            -38.1513106
                        ],
                        [
                            145.1878092,
                            -38.1549956
                        ],
                        [
                            145.1377882,
                            -38.01769
                        ],
                        [
                            145.049823,
                            -37.9166227
                        ],
                        [
                            145.0478508,
                            -37.8817908
                        ]
                    ]
                ]
            }
        },
        {
            "type": "Feature",
            "properties": {
                "route_id": 7,
                "route_name": "Glen Waverley"
            },
            "geometry": {
                "type": "Polygon",
                "coordinates": [
                    [
                        [
                            145.0157846,
                            -37.8272171
                        ],
                        [
                            145.0134426,
                            -37.8281861
                        ],
                        [
                            145.0245298,
                            -37.8429985
                        ],
                        [
                            145.0541799,
                            -37.8613384
                        ],
                        [
                            145.0659113,
                            -37.8804111
                        ],
                        [
                            145.1721308,
                            -37.8883135
                        ],
                        [
                            145.1745329,
                            -37.8711672
                        ],
                        [
                            145.1151478,
                            -37.8705627
                        ],
                        [
                            145.0932976,
                            -37.8716627
                        ],
                        [
                            145.0727916,
                            -37.8729231
                        ],
                        [
                            145.0450863,
                            -37.8373477
                        ],
                        [
                            145.0197408,
                            -37.827467
                        ],
                        [
                            145.0157846,
                            -37.8272171
                        ]
                    ]
                ]
            }
        },
        {
            "type": "Feature",
            "properties": {
                "route_id": 8,
                "route_name": "Hurstbridge"
            },
            "geometry": {
                "type": "Polygon",
                "coordinates": [
                    [
                        [
                            144.9974941,
                            -37.780319
                        ],
                        [
                            144.9959982,
                            -37.7868863
                        ],
                        [
                            145.0029943,
                            -37.7820199
                        ],
                        [
                            145.0355976,
                            -37.7822104
                        ],
                        [
                            145.0761781,
                            -37.752206
                        ],
                        [
                            145.1797758,
                            -37.7289868
                        ],
                        [
                            145.2248215,
                            -37.6283991
                        ],
                        [
                            145.1244171,
                            -37.6257582
                        ],
                        [
                            145.0767791,
                            -37.684692
                        ],
                        [
                            145.0532445,
                            -37.7234557
                        ],
                        [
                            144.9974941,
                            -37.780319
                        ]
                    ]
                ]
            }
        },
        {
            "type": "Feature",
            "properties": {
                "route_id": 9,
                "route_name": "Lilydale"
            },
            "geometry": {
                "type": "Polygon",
                "coordinates": [
                    [
                        [
                            145.2321654,
                            -37.8137002
                        ],
                        [
                            145.2443116,
                            -37.8152501
                        ],
                        [
                            145.2761257,
                            -37.8115934
                        ],
                        [
                            145.3398428,
                            -37.7857238
                        ],
                        [
                            145.3548861,
                            -37.75676
                        ],
                        [
                            145.3436558,
                            -37.752109
                        ],
                        [
                            145.271449,
                            -37.7884259
                        ],
                        [
                            145.2321654,
                            -37.8137002
                        ]
                    ]
                ]
            }
        },
        {
            "type": "Feature",
            "properties": {
                "route_id": 11,
                "route_name": "Pakenham"
            },
            "geometry": {
                "type": "Polygon",
                "coordinates": [
                    [
                        [
                            145.2270648,
                            -38.0001085
                        ],
                        [
                            145.2270304,
                            -38.0048203
                        ],
                        [
                            145.2484627,
                            -38.021274
                        ],
                        [
                            145.288457,
                            -38.0269371
                        ],
                        [
                            145.409448,
                            -38.0865829
                        ],
                        [
                            145.5530315,
                            -38.1028262
                        ],
                        [
                            145.5541386,
                            -38.033246
                        ],
                        [
                            145.2270648,
                            -38.0001085
                        ]
                    ]
                ]
            }
        },
        {
            "type": "Feature",
            "properties": {
                "route_id": 12,
                "route_name": "Sandringham"
            },
            "geometry": {
                "type": "Polygon",
                "coordinates": [
                    [
                        [
                            144.9923638,
                            -37.8412912
                        ],
                        [
                            144.9898698,
                            -37.8398332
                        ],
                        [
                            144.986984,
                            -37.8570899
                        ],
                        [
                            144.9928018,
                            -37.954688
                        ],
                        [
                            145.015275,
                            -37.9556349
                        ],
                        [
                            145.012642,
                            -37.884153
                        ],
                        [
                            144.9923638,
                            -37.8412912
                        ]
                    ]
                ]
            }
        },
        {
            "type": "Feature",
            "properties": {
                "route_id": 14,
                "route_name": "Sunbury"
            },
            "geometry": {
                "type": "Polygon",
                "coordinates": [
                    [
                        [
                            144.9015793,
                            -37.8013342
                        ],
                        [
                            144.8991871,
                            -37.8039758
                        ],
                        [
                            144.8321845,
                            -37.80113
                        ],
                        [
                            144.7242404,
                            -37.6708408
                        ],
                        [
                            144.7036578,
                            -37.616889
                        ],
                        [
                            144.7111963,
                            -37.5668545
                        ],
                        [
                            144.766044,
                            -37.5777223
                        ],
                        [
                            144.9015793,
                            -37.8013342
                        ]
                    ]
                ]
            }
        },
        {
            "type": "Feature",
            "properties": {
                "route_id": 15,
                "route_name": "Upfield"
            },
            "geometry": {
                "type": "Polygon",
                "coordinates": [
                    [
                        [
                            144.9369142,
                            -37.8021026
                        ],
                        [
                            144.9396614,
                            -37.8032004
                        ],
                        [
                            144.9431995,
                            -37.790876
                        ],
                        [
                            144.9631975,
                            -37.7825184
                        ],
                        [
                            144.9706657,
                            -37.7226853
                        ],
                        [
                            144.9574815,
                            -37.6678335
                        ],
                        [
                            144.9476246,
                            -37.6622202
                        ],
                        [
                            144.945274,
                            -37.6631858
                        ],
                        [
                            144.9504738,
                            -37.7724137
                        ],
                        [
                            144.9334736,
                            -37.7859506
                        ],
                        [
                            144.9348231,
                            -37.7993628
                        ],
                        [
                            144.9369142,
                            -37.8021026
                        ]
                    ]
                ]
            }
        },
        {
            "type": "Feature",
            "properties": {
                "route_id": 16,
                "route_name": "Werribee"
            },
            "geometry": {
                "type": "Polygon",
                "coordinates": [
                    [
                        [
                            144.8828738,
                            -37.8442546
                        ],
                        [
                            144.8835131,
                            -37.8458158
                        ],
                        [
                            144.8409482,
                            -37.875435
                        ],
                        [
                            144.6538679,
                            -37.906057
                        ],
                        [
                            144.6479977,
                            -37.8987783
                        ],
                        [
                            144.6823922,
                            -37.8750484
                        ],
                        [
                            144.8284159,
                            -37.8412573
                        ],
                        [
                            144.8828738,
                            -37.8442546
                        ]
                    ]
                ]
            }
        },
        {
            "type": "Feature",
            "properties": {
                "route_id": 17,
                "route_name": "Williamstown"
            },
            "geometry": {
                "type": "Polygon",
                "coordinates": [
                    [
                        [
                            144.8842997,
                            -37.8445824
                        ],
                        [
                            144.8827193,
                            -37.8470783
                        ],
                        [
                            144.8952903,
                            -37.8733106
                        ],
                        [
                            144.9162266,
                            -37.8736089
                        ],
                        [
                            144.8842997,
                            -37.8445824
                        ]
                    ]
                ]
            }
        }
    ]
}
